{"type": "FeatureCollection", "features": [ {"type": "Feature", "properties": {"norad_id": 38755, "name": "SPOT 6", "group": "resource", "lat": 66.44081152043569, "lon": -109.52246142736672, "alt_km": 690.4573082553861, "timestamp": "2025-12-12T11:38:31.073105+00:00", "meta": {"OBJECT_NAME": "SPOT 6", "OBJECT_ID": "2012-047A", "EPOCH": "2025-12-12T04:32:39.168672", "MEAN_MOTION": 14.58602917, "ECCENTRICITY": 0.0001099, "INCLINATION": 98.1568, "RA_OF_ASC_NODE": 50.9834, "ARG_OF_PERICENTER": 96.5161, "MEAN_ANOMALY": 263.6163, "EPHEMERIS_TYPE": 0, "CLASSIFICATION_TYPE": "U", "NORAD_CAT_ID": 38755, "ELEMENT_SET_NO": 999, "REV_AT_EPOCH": 70579, "BSTAR": 0.00018402, "MEAN_MOTION_DOT": 8.11e-06, "MEAN_MOTION_DDOT": 0}, "tle": {"line1": "1 38755U 12047A   25346.18934223  .00000811  00000+0  18402-3 0  9991", "line2": "2 38755  98.1568  50.9834 0001099  96.5161 263.6163 14.58602917705791"}}, "geometry": {"type": "Point", "coordinates": [-109.52246142736672, 66.44081152043569]}}, {"type": "Feature", "properties": {"norad_id": 39019, "name": "PLEIADES 1B", "group": "resource", "lat": 10.49968283017433, "lon": 57.612810301697564, "alt_km": 699.0804651463168, "timestamp": "2025-12-12T11:38:31.073115+00:00", "meta": {"OBJECT_NAME": "PLEIADES 1B", "OBJECT_ID": "2012-068A", "EPOCH": "2025-12-12T05:00:27.715104", "MEAN_MOTION": 14.58552837, "ECCENTRICITY": 0.0001203, "INCLINATION": 98.179, "RA_OF_ASC_NODE": 58.8682, "ARG_OF_PERICENTER": 81.9798, "MEAN_ANOMALY": 278.1538, "EPHEMERIS_TYPE": 0, "CLASSIFICATION_TYPE": "U", "NORAD_CAT_ID": 39019, "ELEMENT_SET_NO": 999, "REV_AT_EPOCH": 69359, "BSTAR": 0.00020161, "MEAN_MOTION_DOT": 8.92e-06, "MEAN_MOTION_DDOT": 0}, "tle": {"line1": "1 39019U 12068A   25346.20865411  .00000892  00000+0  20161-3 0  9997", "line2": "2 39019  98.1790  58.8682 0001203  81.9798 278.1538 14.58552837693597"}}, "geometry": {"type": "Point", "coordinates": [57.612810301697564, 10.49968283017433]}}, {"type": "Feature", "properties": {"norad_id": 39030, "name": "GOKTURK 2", "group": "resource", "lat": -30.574771983727494, "lon": 3.5727941024411582, "alt_km": 650.4755373968101, "timestamp": "2025-12-12T11:38:31.073125+00:00", "meta": {"OBJECT_NAME": "GOKTURK 2", "OBJECT_ID": "2012-073A", "EPOCH": "2025-12-12T04:10:42.233952", "MEAN_MOTION": 14.75288938, "ECCENTRICITY": 9.81e-05, "INCLINATION": 97.6893, "RA_OF_ASC_NODE": 187.8555, "ARG_OF_PERICENTER": 102.7002, "MEAN_ANOMALY": 257.4317, "EPHEMERIS_TYPE": 0, "CLASSIFICATION_TYPE": "U", "NORAD_CAT_ID": 39030, "ELEMENT_SET_NO": 999, "REV_AT_EPOCH": 69693, "BSTAR": 0.00012321, "MEAN_MOTION_DOT": 7.87e-06, "MEAN_MOTION_DDOT": 0}, "tle": {"line1": "1 39030U 12073A   25346.17409993  .00000787  00000+0  12321-3 0  9993", "line2": "2 39030  97.6893 187.8555 0000981 102.7002 257.4317 14.75288938696935"}}, "geometry": {"type": "Point", "coordinates": [3.5727941024411582, -30.574771983727494]}}, {"type": "Feature", "properties": {"norad_id": 39084, "name": "LANDSAT 8", "group": "resource", "lat": -2.1963378693531084, "lon": -125.75485168154853, "alt_km": 705.8350028378309, "timestamp": "2025-12-12T11:38:31.073136+00:00", "meta": {"OBJECT_NAME": "LANDSAT 8", "OBJECT_ID": "2013-008A", "EPOCH": "2025-12-12T04:13:00.181056", "MEAN_MOTION": 14.57113154, "ECCENTRICITY": 0.000109, "INCLINATION": 98.2073, "RA_OF_ASC_NODE": 54.2575, "ARG_OF_PERICENTER": 88.4048, "MEAN_ANOMALY": 271.7275, "EPHEMERIS_TYPE": 0, "CLASSIFICATION_TYPE": "U", "NORAD_CAT_ID": 39084, "ELEMENT_SET_NO": 999, "REV_AT_EPOCH": 67066, "BSTAR": 0.00015601, "MEAN_MOTION_DOT": 6.58e-06, "MEAN_MOTION_DDOT": 0}, "tle": {"line1": "1 39084U 13008A   25346.17569654  .00000658  00000+0  15601-3 0  9993", "line2": "2 39084  98.2073  54.2575 0001090  88.4048 271.7275 14.57113154670663"}}, "geometry": {"type": "Point", "coordinates": [-125.75485168154853, -2.1963378693531084]}}, {"type": "Feature", "properties": {"norad_id": 39086, "name": "SARAL", "group": "resource", "lat": -10.103862421633886, "lon": -11.117508080479553, "alt_km": 786.3820802276705, "timestamp": "2025-12-12T11:38:31.073146+00:00", "meta": {"OBJECT_NAME": "SARAL", "OBJECT_ID": "2013-009A", "EPOCH": "2025-12-12T02:22:38.991360", "MEAN_MOTION": 14.32756681, "ECCENTRICITY": 0.0002855, "INCLINATION": 98.5503, "RA_OF_ASC_NODE": 170.0379, "ARG_OF_PERICENTER": 109.7601, "MEAN_ANOMALY": 250.3891, "EPHEMERIS_TYPE": 0, "CLASSIFICATION_TYPE": "U", "NORAD_CAT_ID": 39086, "ELEMENT_SET_NO": 999, "REV_AT_EPOCH": 66881, "BSTAR": 9.0878e-05, "MEAN_MOTION_DOT": 2.04e-06, "MEAN_MOTION_DDOT": 0}, "tle": {"line1": "1 39086U 13009A   25346.09906240  .00000204  00000+0  90878-4 0  9990", "line2": "2 39086  98.5503 170.0379 0002855 109.7601 250.3891 14.32756681668819"}}, "geometry": {"type": "Point", "coordinates": [-11.117508080479553, -10.103862421633886]}}, {"type": "Feature", "properties": {"norad_id": 39150, "name": "GAOFEN-1", "group": "resource", "lat": -70.62583338514581, "lon": 80.5081362561298, "alt_km": 657.9024358016623, "timestamp": "2025-12-12T11:38:31.073156+00:00", "meta": {"OBJECT_NAME": "GAOFEN-1", "OBJECT_ID": "2013-018A", "EPOCH": "2025-12-12T05:27:51.366240", "MEAN_MOTION": 14.76533007, "ECCENTRICITY": 0.0018193, "INCLINATION": 97.9323, "RA_OF_ASC_NODE": 56.8956, "ARG_OF_PERICENTER": 144.5794, "MEAN_ANOMALY": 215.6629, "EPHEMERIS_TYPE": 0, "CLASSIFICATION_TYPE": "U", "NORAD_CAT_ID": 39150, "ELEMENT_SET_NO": 999, "REV_AT_EPOCH": 68065, "BSTAR": 0.00022234, "MEAN_MOTION_DOT": 1.503e-05, "MEAN_MOTION_DDOT": 0}, "tle": {"line1": "1 39150U 13018A   25346.22767785  .00001503  00000+0  22234-3 0  9999", "line2": "2 39150  97.9323  56.8956 0018193 144.5794 215.6629 14.76533007680650"}}, "geometry": {"type": "Point", "coordinates": [80.5081362561298, -70.62583338514581]}}, {"type": "Feature", "properties": {"norad_id": 39160, "name": "VNREDSAT 1", "group": "resource", "lat": 0.6409200207403872, "lon": 41.67902914825134, "alt_km": 680.0415117583007, "timestamp": "2025-12-12T11:38:31.073166+00:00", "meta": {"OBJECT_NAME": "VNREDSAT 1", "OBJECT_ID": "2013-021B", "EPOCH": "2025-12-12T03:26:33.152064", "MEAN_MOTION": 14.64922374, "ECCENTRICITY": 0.000129, "INCLINATION": 97.9372, "RA_OF_ASC_NODE": 41.4388, "ARG_OF_PERICENTER": 79.4443, "MEAN_ANOMALY": 280.6905, "EPHEMERIS_TYPE": 0, "CLASSIFICATION_TYPE": "U", "NORAD_CAT_ID": 39160, "ELEMENT_SET_NO": 999, "REV_AT_EPOCH": 67290, "BSTAR": 0.00026836, "MEAN_MOTION_DOT": 1.39e-05, "MEAN_MOTION_DDOT": 0}, "tle": {"line1": "1 39160U 13021B   25346.14343926  .00001390  00000+0  26836-3 0  9998", "line2": "2 39160  97.9372  41.4388 0001290  79.4443 280.6905 14.64922374672905"}}, "geometry": {"type": "Point", "coordinates": [41.67902914825134, 0.6409200207403872]}}, {"type": "Feature", "properties": {"norad_id": 39227, "name": "ARIRANG-5 (KOMPSAT-5)", "group": "resource", "lat": 42.36990695112832, "lon": 163.78359827162691, "alt_km": 547.132948524636, "timestamp": "2025-12-12T11:38:31.073176+00:00", "meta": {"OBJECT_NAME": "ARIRANG-5 (KOMPSAT-5)", "OBJECT_ID": "2013-042A", "EPOCH": "2025-12-12T03:28:16.476096", "MEAN_MOTION": 15.04499617, "ECCENTRICITY": 0.0003675, "INCLINATION": 97.6144, "RA_OF_ASC_NODE": 170.4572, "ARG_OF_PERICENTER": 56.9902, "MEAN_ANOMALY": 303.1676, "EPHEMERIS_TYPE": 0, "CLASSIFICATION_TYPE": "U", "NORAD_CAT_ID": 39227, "ELEMENT_SET_NO": 999, "REV_AT_EPOCH": 67573, "BSTAR": 0.00023195, "MEAN_MOTION_DOT": 3.187e-05, "MEAN_MOTION_DDOT": 0}, "tle": {"line1": "1 39227U 13042A   25346.14463514  .00003187  00000+0  23195-3 0  9992", "line2": "2 39227  97.6144 170.4572 0003675  56.9902 303.1676 15.04499617675734"}}, "geometry": {"type": "Point", "coordinates": [163.78359827162691, 42.36990695112832]}}, {"type": "Feature", "properties": {"norad_id": 39418, "name": "SKYSAT-A", "group": "resource", "lat": 48.91585338838346, "lon": 28.115078708451872, "alt_km": 541.0769466989987, "timestamp": "2025-12-12T11:38:31.073186+00:00", "meta": {"OBJECT_NAME": "SKYSAT-A", "OBJECT_ID": "2013-066C", "EPOCH": "2025-12-12T01:53:26.617920", "MEAN_MOTION": 15.11597533, "ECCENTRICITY": 0.0020648, "INCLINATION": 97.4112, "RA_OF_ASC_NODE": 36.3072, "ARG_OF_PERICENTER": 238.8896, "MEAN_ANOMALY": 121.0309, "EPHEMERIS_TYPE": 0, "CLASSIFICATION_TYPE": "U", "NORAD_CAT_ID": 39418, "ELEMENT_SET_NO": 999, "REV_AT_EPOCH": 66020, "BSTAR": 0.00035227, "MEAN_MOTION_DOT": 5.948e-05, "MEAN_MOTION_DDOT": 0}, "tle": {"line1": "1 39418U 13066C   25346.07878030  .00005948  00000+0  35227-3 0  9991", "line2": "2 39418  97.4112  36.3072 0020648 238.8896 121.0309 15.11597533660206"}}, "geometry": {"type": "Point", "coordinates": [28.115078708451872, 48.91585338838346]}}, {"type": "Feature", "properties": {"norad_id": 39419, "name": "DUBAISAT-2", "group": "resource", "lat": -14.452407556313664, "lon": 154.96874133170758, "alt_km": 550.5046545080404, "timestamp": "2025-12-12T11:38:31.073197+00:00", "meta": {"OBJECT_NAME": "DUBAISAT-2", "OBJECT_ID": "2013-066D", "EPOCH": "2025-12-12T06:00:19.172160", "MEAN_MOTION": 15.08355508, "ECCENTRICITY": 0.0010737, "INCLINATION": 97.4459, "RA_OF_ASC_NODE": 336.6727, "ARG_OF_PERICENTER": 323.0748, "MEAN_ANOMALY": 36.9741, "EPHEMERIS_TYPE": 0, "CLASSIFICATION_TYPE": "U", "NORAD_CAT_ID": 39419, "ELEMENT_SET_NO": 999, "REV_AT_EPOCH": 65819, "BSTAR": 0.00060709, "MEAN_MOTION_DOT": 9.387e-05, "MEAN_MOTION_DDOT": 0}, "tle": {"line1": "1 39419U 13066D   25346.25022190  .00009387  00000+0  60709-3 0  9994", "line2": "2 39419  97.4459 336.6727 0010737 323.0748  36.9741 15.08355508658194"}}, "geometry": {"type": "Point", "coordinates": [154.96874133170758, -14.452407556313664]}}]}